{
  "type": "FeatureCollection",
  "name": "DriftSimulationHindcast",
  "properties": {
    "simulation_id": "drift_sim_s1a_001_hindcast",
    "slick_id": "slick_s1a_20260301_001",
    "simulation_mode": "HINDCAST",
    "model_name": "LAGRANGIAN_MONTE_CARLO_DRIFT_v1",
    "start_time": "2026-03-01T06:45:00Z",
    "end_time": "2026-03-01T02:45:00Z",
    "time_step_seconds": 900,
    "num_particles": 250,
    "diffusion_coefficient_m2_s": 10.0,
    "wind_drift_factor": 0.032,
    "status": "COMPLETED",
    "probable_origin_time": "2026-03-01T03:30:00Z",
    "probable_origin_centroid": [71.378, 19.312],
    "estimated_spill_duration_hours": 3.25
  },
  "features": [
    {
      "type": "Feature",
      "id": "probable_origin_region",
      "properties": {
        "feature_type": "PROBABLE_ORIGIN_POLYGON",
        "confidence_level": 0.95,
        "description": "95% confidence convex hull of hindcast Lagrangian particles at inferred release timestamp."
      },
      "geometry": {
        "type": "Polygon",
        "coordinates": [
          [
            [71.365, 19.302],
            [71.390, 19.308],
            [71.396, 19.324],
            [71.382, 19.330],
            [71.362, 19.318],
            [71.365, 19.302]
          ]
        ]
      }
    },
    {
      "type": "Feature",
      "id": "drift_trajectory_centerline",
      "properties": {
        "feature_type": "DRIFT_TRAJECTORY",
        "description": "Mean hindcast path from slick detection centroid to probable release location."
      },
      "geometry": {
        "type": "LineString",
        "coordinates": [
          [71.4182, 19.3451],
          [71.4050, 19.3340],
          [71.3920, 19.3220],
          [71.3780, 19.3120]
        ]
      }
    }
  ]
}
